{"type": "FeatureCollection", "features": [ {"type": "Feature", "properties": {"norad_id": 45807, "name": "BEIDOU-3 G3 (C61)", "group": "gnss", "lat": 0.9226574233615648, "lon": 93.11486380166959, "alt_km": 35780.350470853264, "timestamp": "2025-12-21T16:47:54.981839+00:00", "meta": {"OBJECT_NAME": "BEIDOU-3 G3 (C61)", "OBJECT_ID": "2020-040A", "EPOCH": "2025-12-21T06:52:13.236384", "MEAN_MOTION": 1.0026998, "ECCENTRICITY": 0.00064971, "INCLINATION": 2.0108, "RA_OF_ASC_NODE": 66.6553, "ARG_OF_PERICENTER": 309.377, "MEAN_ANOMALY": 287.7025, "EPHEMERIS_TYPE": 0, "CLASSIFICATION_TYPE": "U", "NORAD_CAT_ID": 45807, "ELEMENT_SET_NO": 999, "REV_AT_EPOCH": 2028, "BSTAR": 0, "MEAN_MOTION_DOT": -3.32e-06, "MEAN_MOTION_DDOT": 0}, "tle": {"line1": "1 45807U 20040A   25355.28626431 -.00000332  00000+0  00000+0 0  9999", "line2": "2 45807   2.0108  66.6553 0006497 309.3770 287.7025  1.00269980 20281"}}, "geometry": {"type": "Point", "coordinates": [93.11486380166959, 0.9226574233615648]}}, {"type": "Feature", "properties": {"norad_id": 45854, "name": "GPS BIII-3  (PRN 23)", "group": "gnss", "lat": -21.014903220659786, "lon": 21.154444825476805, "alt_km": 20289.799540048352, "timestamp": "2025-12-21T16:47:54.981861+00:00", "meta": {"OBJECT_NAME": "GPS BIII-3  (PRN 23)", "OBJECT_ID": "2020-041A", "EPOCH": "2025-12-20T05:44:36.632832", "MEAN_MOTION": 2.00561934, "ECCENTRICITY": 0.00606224, "INCLINATION": 56.5518, "RA_OF_ASC_NODE": 35.8938, "ARG_OF_PERICENTER": 203.675, "MEAN_ANOMALY": 155.7759, "EPHEMERIS_TYPE": 0, "CLASSIFICATION_TYPE": "U", "NORAD_CAT_ID": 45854, "ELEMENT_SET_NO": 999, "REV_AT_EPOCH": 4044, "BSTAR": 0, "MEAN_MOTION_DOT": -5.8e-07, "MEAN_MOTION_DDOT": 0}, "tle": {"line1": "1 45854U 20041A   25354.23931288 -.00000058  00000+0  00000+0 0  9990", "line2": "2 45854  56.5518  35.8938 0060622 203.6750 155.7759  2.00561934 40444"}}, "geometry": {"type": "Point", "coordinates": [21.154444825476805, -21.014903220659786]}}, {"type": "Feature", "properties": {"norad_id": 46114, "name": "GALAXY 30 (WAAS/PRN 135)", "group": "gnss", "lat": -0.03018435064078918, "lon": -142.5072478707136, "alt_km": 35780.53036724081, "timestamp": "2025-12-21T16:47:54.981880+00:00", "meta": {"OBJECT_NAME": "GALAXY 30 (WAAS/PRN 135)", "OBJECT_ID": "2020-056C", "EPOCH": "2025-12-21T00:37:13.930752", "MEAN_MOTION": 1.00273357, "ECCENTRICITY": 0.00020294, "INCLINATION": 0.0178, "RA_OF_ASC_NODE": 349.0054, "ARG_OF_PERICENTER": 282.3653, "MEAN_ANOMALY": 62.8096, "EPHEMERIS_TYPE": 0, "CLASSIFICATION_TYPE": "U", "NORAD_CAT_ID": 46114, "ELEMENT_SET_NO": 999, "REV_AT_EPOCH": 1950, "BSTAR": 0, "MEAN_MOTION_DOT": 6e-07, "MEAN_MOTION_DDOT": 0}, "tle": {"line1": "1 46114U 20056C   25355.02585568  .00000060  00000+0  00000+0 0  9992", "line2": "2 46114   0.0178 349.0054 0002029 282.3653  62.8096  1.00273357 19505"}}, "geometry": {"type": "Point", "coordinates": [-142.5072478707136, -0.03018435064078918]}}, {"type": "Feature", "properties": {"norad_id": 46805, "name": "COSMOS 2547 (705K)", "group": "gnss", "lat": 60.786317911526595, "lon": -39.843116846987456, "alt_km": 19131.85531475841, "timestamp": "2025-12-21T16:47:54.981898+00:00", "meta": {"OBJECT_NAME": "COSMOS 2547 (705K)", "OBJECT_ID": "2020-075A", "EPOCH": "2025-12-21T02:15:10.361952", "MEAN_MOTION": 2.13100243, "ECCENTRICITY": 0.0006113, "INCLINATION": 64.5966, "RA_OF_ASC_NODE": 198.4175, "ARG_OF_PERICENTER": 227.727, "MEAN_ANOMALY": 132.2941, "EPHEMERIS_TYPE": 0, "CLASSIFICATION_TYPE": "U", "NORAD_CAT_ID": 46805, "ELEMENT_SET_NO": 999, "REV_AT_EPOCH": 4011, "BSTAR": 0, "MEAN_MOTION_DOT": 9.8e-07, "MEAN_MOTION_DDOT": 0}, "tle": {"line1": "1 46805U 20075A   25355.09386993  .00000098  00000+0  00000+0 0  9999", "line2": "2 46805  64.5966 198.4175 0006113 227.7270 132.2941  2.13100243 40118"}}, "geometry": {"type": "Point", "coordinates": [-39.843116846987456, 60.786317911526595]}}, {"type": "Feature", "properties": {"norad_id": 46826, "name": "GPS BIII-4  (PRN 14)", "group": "gnss", "lat": -40.91164510424939, "lon": 178.9696268514809, "alt_km": 20222.580777586038, "timestamp": "2025-12-21T16:47:54.981916+00:00", "meta": {"OBJECT_NAME": "GPS BIII-4  (PRN 14)", "OBJECT_ID": "2020-078A", "EPOCH": "2025-12-16T01:06:13.902336", "MEAN_MOTION": 2.00566891, "ECCENTRICITY": 0.0064755, "INCLINATION": 54.0145, "RA_OF_ASC_NODE": 218.2068, "ARG_OF_PERICENTER": 203.3828, "MEAN_ANOMALY": 339.3936, "EPHEMERIS_TYPE": 0, "CLASSIFICATION_TYPE": "U", "NORAD_CAT_ID": 46826, "ELEMENT_SET_NO": 999, "REV_AT_EPOCH": 3783, "BSTAR": 0, "MEAN_MOTION_DOT": 6.7e-07, "MEAN_MOTION_DDOT": 0}, "tle": {"line1": "1 46826U 20078A   25350.04599424  .00000067  00000+0  00000+0 0  9996", "line2": "2 46826  54.0145 218.2068 0064755 203.3828 339.3936  2.00566891 37831"}}, "geometry": {"type": "Point", "coordinates": [178.9696268514809, -40.91164510424939]}}, {"type": "Feature", "properties": {"norad_id": 48859, "name": "GPS BIII-5  (PRN 11)", "group": "gnss", "lat": 39.053242231040336, "lon": 125.3140784073532, "alt_km": 20193.96747622791, "timestamp": "2025-12-21T16:47:54.981938+00:00", "meta": {"OBJECT_NAME": "GPS BIII-5  (PRN 11)", "OBJECT_ID": "2021-054A", "EPOCH": "2025-12-08T04:14:32.423424", "MEAN_MOTION": 2.00553627, "ECCENTRICITY": 0.0024678, "INCLINATION": 55.2581, "RA_OF_ASC_NODE": 340.1367, "ARG_OF_PERICENTER": 233.3993, "MEAN_ANOMALY": 212.8594, "EPHEMERIS_TYPE": 0, "CLASSIFICATION_TYPE": "U", "NORAD_CAT_ID": 48859, "ELEMENT_SET_NO": 999, "REV_AT_EPOCH": 3292, "BSTAR": 0, "MEAN_MOTION_DOT": -8.6e-07, "MEAN_MOTION_DDOT": 0}, "tle": {"line1": "1 48859U 21054A   25342.17676416 -.00000086  00000+0  00000+0 0  9993", "line2": "2 48859  55.2581 340.1367 0024678 233.3993 212.8594  2.00553627 32922"}}, "geometry": {"type": "Point", "coordinates": [125.3140784073532, 39.053242231040336]}}, {"type": "Feature", "properties": {"norad_id": 49336, "name": "QZS-1R (QZSS/PRN 196)", "group": "gnss", "lat": 23.510564712382358, "lon": 117.29423983133536, "alt_km": 37685.141810491186, "timestamp": "2025-12-21T16:47:54.981957+00:00", "meta": {"OBJECT_NAME": "QZS-1R (QZSS/PRN 196)", "OBJECT_ID": "2021-096A", "EPOCH": "2025-12-18T14:04:25.772160", "MEAN_MOTION": 1.00255833, "ECCENTRICITY": 0.07566602, "INCLINATION": 37.0895, "RA_OF_ASC_NODE": 82.273, "ARG_OF_PERICENTER": 271.433, "MEAN_ANOMALY": 79.2664, "EPHEMERIS_TYPE": 0, "CLASSIFICATION_TYPE": "U", "NORAD_CAT_ID": 49336, "ELEMENT_SET_NO": 999, "REV_AT_EPOCH": 1519, "BSTAR": 0, "MEAN_MOTION_DOT": -2.72e-06, "MEAN_MOTION_DDOT": 0}, "tle": {"line1": "1 49336U 21096A   25352.58640940 -.00000272  00000+0  00000+0 0  9996", "line2": "2 49336  37.0895  82.2730 0756660 271.4330  79.2664  1.00255833 15198"}}, "geometry": {"type": "Point", "coordinates": [117.29423983133536, 23.510564712382358]}}, {"type": "Feature", "properties": {"norad_id": 49809, "name": "GSAT0223 (GALILEO 27)", "group": "gnss", "lat": -57.13619131887922, "lon": -99.59782451898752, "alt_km": 23215.52258857328, "timestamp": "2025-12-21T16:47:54.981970+00:00", "meta": {"OBJECT_NAME": "GSAT0223 (GALILEO 27)", "OBJECT_ID": "2021-116A", "EPOCH": "2025-12-19T11:56:47.637312", "MEAN_MOTION": 1.7047609, "ECCENTRICITY": 0.00044147, "INCLINATION": 57.2179, "RA_OF_ASC_NODE": 346.5305, "ARG_OF_PERICENTER": 254.6091, "MEAN_ANOMALY": 105.9777, "EPHEMERIS_TYPE": 0, "CLASSIFICATION_TYPE": "U", "NORAD_CAT_ID": 49809, "ELEMENT_SET_NO": 999, "REV_AT_EPOCH": 2512, "BSTAR": 0, "MEAN_MOTION_DOT": -7.2e-07, "MEAN_MOTION_DDOT": 0}, "tle": {"line1": "1 49809U 21116A   25353.49777358 -.00000072  00000+0  00000+0 0  9997", "line2": "2 49809  57.2179 346.5305 0004414 254.6091 105.9777  1.70476090 25129"}}, "geometry": {"type": "Point", "coordinates": [-99.59782451898752, -57.13619131887922]}}, {"type": "Feature", "properties": {"norad_id": 49810, "name": "GSAT0224 (GALILEO 28)", "group": "gnss", "lat": 20.588026144748962, "lon": 0.4690838480729229, "alt_km": 23225.892692181613, "timestamp": "2025-12-21T16:47:54.981984+00:00", "meta": {"OBJECT_NAME": "GSAT0224 (GALILEO 28)", "OBJECT_ID": "2021-116B", "EPOCH": "2025-12-20T04:43:34.979232", "MEAN_MOTION": 1.70476091, "ECCENTRICITY": 0.0003747, "INCLINATION": 57.2188, "RA_OF_ASC_NODE": 346.5104, "ARG_OF_PERICENTER": 259.7047, "MEAN_ANOMALY": 282.5653, "EPHEMERIS_TYPE": 0, "CLASSIFICATION_TYPE": "U", "NORAD_CAT_ID": 49810, "ELEMENT_SET_NO": 999, "REV_AT_EPOCH": 2515, "BSTAR": 0, "MEAN_MOTION_DOT": -7e-07, "MEAN_MOTION_DDOT": 0}, "tle": {"line1": "1 49810U 21116B   25354.19693263 -.00000070  00000+0  00000+0 0  9997", "line2": "2 49810  57.2188 346.5104 0003747 259.7047 282.5653  1.70476091 25152"}}, "geometry": {"type": "Point", "coordinates": [0.4690838480729229, 20.588026144748962]}}, {"type": "Feature", "properties": {"norad_id": 52984, "name": "COSMOS 2557 (706K)", "group": "gnss", "lat": -19.574910594866427, "lon": -49.08918596934011, "alt_km": 19115.47021461845, "timestamp": "2025-12-21T16:47:54.981998+00:00", "meta": {"OBJECT_NAME": "COSMOS 2557 (706K)", "OBJECT_ID": "2022-075A", "EPOCH": "2025-12-20T07:41:36.547296", "MEAN_MOTION": 2.13102072, "ECCENTRICITY": 0.0013536, "INCLINATION": 64.4056, "RA_OF_ASC_NODE": 320.785, "ARG_OF_PERICENTER": 278.2438, "MEAN_ANOMALY": 81.5952, "EPHEMERIS_TYPE": 0, "CLASSIFICATION_TYPE": "U", "NORAD_CAT_ID": 52984, "ELEMENT_SET_NO": 999, "REV_AT_EPOCH": 2690, "BSTAR": 0, "MEAN_MOTION_DOT": -5.4e-07, "MEAN_MOTION_DDOT": 0}, "tle": {"line1": "1 52984U 22075A   25354.32056189 -.00000054  00000+0  00000+0 0  9995", "line2": "2 52984  64.4056 320.7850 0013536 278.2438  81.5952  2.13102072 26907"}}, "geometry": {"type": "Point", "coordinates": [-49.08918596934011, -19.574910594866427]}}]}